{"type": "FeatureCollection", "features": [{"type": "Feature", "properties": {"norad_id": 50032, "name": "COSMOS 1408 DEB", "group": "cosmos-1408-debris", "lat": 40.105155689914824, "lon": -133.58068493731847, "alt_km": 418.9630934721099, "timestamp": "2025-12-18T08:58:43.682062+00:00", "meta": {"OBJECT_NAME": "COSMOS 1408 DEB", "OBJECT_ID": "1982-092RU", "EPOCH": "2025-12-17T21:30:05.103360", "MEAN_MOTION": 15.45745388, "ECCENTRICITY": 0.00157397, "INCLINATION": 82.5644, "RA_OF_ASC_NODE": 53.2246, "ARG_OF_PERICENTER": 189.1418, "MEAN_ANOMALY": 170.9547, "EPHEMERIS_TYPE": 0, "CLASSIFICATION_TYPE": "U", "NORAD_CAT_ID": 50032, "ELEMENT_SET_NO": 999, "REV_AT_EPOCH": 22683, "BSTAR": 9.1007793e-05, "MEAN_MOTION_DOT": 4.461e-05, "MEAN_MOTION_DDOT": 0}, "tle": {"line1": "1 50032U 82092RU  25351.89589240  .00004461  00000+0  91008-4 0  9998", "line2": "2 50032  82.5644  53.2246 0015739 189.1418 170.9547 15.45745388226834"}}, "geometry": {"type": "Point", "coordinates": [-133.58068493731847, 40.105155689914824]}}, {"type": "Feature", "properties": {"norad_id": 50058, "name": "COSMOS 1408 DEB", "group": "cosmos-1408-debris", "lat": -3.2148013347316464, "lon": 63.02617963146257, "alt_km": 376.9692468474441, "timestamp": "2025-12-18T08:58:43.682082+00:00", "meta": {"OBJECT_NAME": "COSMOS 1408 DEB", "OBJECT_ID": "1982-092SW", "EPOCH": "2025-12-17T14:34:15.421152", "MEAN_MOTION": 15.64394944, "ECCENTRICITY": 0.00162208, "INCLINATION": 82.6132, "RA_OF_ASC_NODE": 64.2468, "ARG_OF_PERICENTER": 82.2196, "MEAN_ANOMALY": 278.0904, "EPHEMERIS_TYPE": 0, "CLASSIFICATION_TYPE": "U", "NORAD_CAT_ID": 50058, "ELEMENT_SET_NO": 999, "REV_AT_EPOCH": 22880, "BSTAR": 0.00027404563, "MEAN_MOTION_DOT": 0.00026488, "MEAN_MOTION_DDOT": 0}, "tle": {"line1": "1 50058U 82092SW  25351.60712293  .00026488  00000+0  27405-3 0  9993", "line2": "2 50058  82.6132  64.2468 0016220  82.2196 278.0904 15.64394944228800"}}, "geometry": {"type": "Point", "coordinates": [63.02617963146257, -3.2148013347316464]}}, {"type": "Feature", "properties": {"norad_id": 50404, "name": "COSMOS 1408 DEB", "group": "cosmos-1408-debris", "lat": 5.898900355034725, "lon": 28.45017592580852, "alt_km": 407.686611005779, "timestamp": "2025-12-18T08:58:43.682096+00:00", "meta": {"OBJECT_NAME": "COSMOS 1408 DEB", "OBJECT_ID": "1982-092ADS", "EPOCH": "2025-12-17T21:06:47.947104", "MEAN_MOTION": 15.14572533, "ECCENTRICITY": 0.01699663, "INCLINATION": 82.2037, "RA_OF_ASC_NODE": 209.7681, "ARG_OF_PERICENTER": 181.2937, "MEAN_ANOMALY": 178.7882, "EPHEMERIS_TYPE": 0, "CLASSIFICATION_TYPE": "U", "NORAD_CAT_ID": 50404, "ELEMENT_SET_NO": 999, "REV_AT_EPOCH": 21271, "BSTAR": 0.0025831071, "MEAN_MOTION_DOT": 0.0006914, "MEAN_MOTION_DDOT": 0}, "tle": {"line1": "1 50404U 82092ADS 25351.87972161  .00069140  00000+0  25831-2 0  9991", "line2": "2 50404  82.2037 209.7681 0169966 181.2937 178.7882 15.14572533212718"}}, "geometry": {"type": "Point", "coordinates": [28.45017592580852, 5.898900355034725]}}, {"type": "Feature", "properties": {"norad_id": 50621, "name": "COSMOS 1408 DEB", "group": "cosmos-1408-debris", "lat": -42.21827664948656, "lon": -104.88557416810056, "alt_km": 403.3929057326932, "timestamp": "2025-12-18T08:58:43.682108+00:00", "meta": {"OBJECT_NAME": "COSMOS 1408 DEB", "OBJECT_ID": "1982-092ALR", "EPOCH": "2025-12-17T19:41:17.239488", "MEAN_MOTION": 15.5692348, "ECCENTRICITY": 0.00290109, "INCLINATION": 82.5704, "RA_OF_ASC_NODE": 68.8912, "ARG_OF_PERICENTER": 133.8684, "MEAN_ANOMALY": 226.4975, "EPHEMERIS_TYPE": 0, "CLASSIFICATION_TYPE": "U", "NORAD_CAT_ID": 50621, "ELEMENT_SET_NO": 999, "REV_AT_EPOCH": 22329, "BSTAR": 0.00030104839, "MEAN_MOTION_DOT": 0.00022149, "MEAN_MOTION_DDOT": 0}, "tle": {"line1": "1 50621U 82092ALR 25351.82033842  .00022149  00000+0  30105-3 0  9990", "line2": "2 50621  82.5704  68.8912 0029010 133.8684 226.4975 15.56923480223297"}}, "geometry": {"type": "Point", "coordinates": [-104.88557416810056, -42.21827664948656]}}]}